H1 CPF 01  gfz 2021 06 03 12  6542 terrasarx 
H2 0702601  6201 31698    2021 06 03 12 59 42 2021 06 08 00 00 42   120 1 1  0 0 0
H9
10 0 59370  23022.000000  0   -6633636.247    408786.471  -1822521.862
10 0 59370  23142.000000  0   -6800113.081    601335.377   -936661.291
10 0 59370  23262.000000  0   -6844534.255    785228.714    -34328.611
10 0 59370  23382.000000  0   -6766251.159    955104.825    868605.894
10 0 59370  23502.000000  0   -6566873.285   1105854.795   1756244.981
10 0 59370  23622.000000  0   -6250237.712   1232753.260   2612953.533
10 0 59370  23742.000000  0   -5822332.546   1331580.912   3423643.277
10 0 59370  23862.000000  0   -5291176.529   1398735.493   4174045.731
10 0 59370  23982.000000  0   -4666659.302   1431328.707   4850966.852
10 0 59370  24102.000000  0   -3960347.473   1427266.620   5442519.271
10 0 59370  24222.000000  0   -3185261.718   1385312.035   5938328.855
10 0 59370  24342.000000  0   -2355629.092   1305127.553   6329713.573
10 0 59370  24462.000000  0   -1486614.333   1187298.914   6609830.600
10 0 59370  24582.000000  0    -594037.778   1033337.216   6773788.514
10 0 59370  24702.000000  0     305913.436    845660.980   6818726.466
10 0 59370  24822.000000  0    1196977.992    627557.933   6743860.654
10 0 59370  24942.000000  0    2063112.865    383127.698   6550497.134
10 0 59370  25062.000000  0    2888781.018    117205.721   6242011.119
10 0 59370  25182.000000  0    3659231.261   -164730.688   5823792.860
10 0 59370  25302.000000  0    4360764.718   -456672.668   5303158.427
10 0 59370  25422.000000  0    4980983.209   -752204.384   4689227.934
10 0 59370  25542.000000  0    5509015.830  -1044639.765   3992771.345
10 0 59370  25662.000000  0    5935718.535  -1327169.041   3226023.629
10 0 59370  25782.000000  0    6253842.557  -1593011.507   2402470.635
10 0 59370  25902.000000  0    6458166.561  -1835570.826   1536610.020
10 0 59370  26022.000000  0    6545589.454  -2048589.282    643691.560
10 0 59370  26142.000000  0    6515181.144  -2226298.044   -260558.781
10 0 59370  26262.000000  0    6368188.787  -2363557.547  -1160225.139
10 0 59370  26382.000000  0    6107999.075  -2455985.713  -2039490.893
10 0 59370  26502.000000  0    5740056.929  -2500070.363  -2882924.579
10 0 59370  26622.000000  0    5271743.957  -2493262.410  -3675755.381
10 0 59370  26742.000000  0    4712221.297  -2434048.854  -4404132.947
10 0 59370  26862.000000  0    4072240.653  -2322004.068  -5055367.920
10 0 59370  26982.000000  0    3363926.998  -2157818.032  -5618147.527
10 0 59370  27102.000000  0    2600540.964  -1943301.254  -6082721.866
10 0 59370  27222.000000  0    1796227.732  -1681367.311  -6441062.396
10 0 59370  27342.000000  0     965753.150  -1375992.794  -6686990.921
10 0 59370  27462.000000  0     124234.061  -1032156.141  -6816274.930
10 0 59370  27582.000000  0    -713132.175   -655756.972  -6826692.158
10 0 59370  27702.000000  0   -1531335.552   -253516.874  -6718064.429
10 0 59370  27822.000000  0   -2315816.625    167138.003  -6492260.013
10 0 59370  27942.000000  0   -3052719.381    598210.096  -6153164.093
10 0 59370  28062.000000  0   -3729131.321   1031277.843  -5706619.752
10 0 59370  28182.000000  0   -4333309.744   1457655.426  -5160338.080
10 0 59370  28302.000000  0   -4854889.022   1868562.849  -4523776.974
10 0 59370  28422.000000  0   -5285065.524   2255304.666  -3807988.324
10 0 59370  28542.000000  0   -5616754.612   2609451.155  -3025435.033
10 0 59370  28662.000000  0   -5844717.991   2923019.553  -2189781.193
10 0 59370  28782.000000  0   -5965657.533   3188651.433  -1315656.593
10 0 59370  28902.000000  0   -5978271.534   3399781.872   -418399.415
10 0 59370  29022.000000  0   -5883271.748   3550795.416    486217.586
10 0 59370  29142.000000  0   -5683359.821   3637164.089   1382272.954
10 0 59370  29262.000000  0   -5383161.561   3655564.123   2253985.892
10 0 59370  29382.000000  0   -4989122.765   3603968.357   3086002.606
10 0 59370  29502.000000  0   -4509369.999   3481711.815   3863674.304
10 0 59370  29622.000000  0   -3953537.914   3289528.714   4573320.822
10 0 59370  29742.000000  0   -3332569.762   3029560.040   5202472.793
10 0 59370  29862.000000  0   -2658495.598   2705333.597   5740090.838
10 0 59370  29982.000000  0   -1944192.278   2321715.109   6176756.003
10 0 59370  30102.000000  0   -1203132.026   1884832.236   6504829.686
10 0 59370  30222.000000  0    -449124.829   1401973.705   6718579.438
10 0 59370  30342.000000  0     303938.574    881465.643   6814273.133
10 0 59370  30462.000000  0    1042342.192    332527.207   6790240.020
10 0 59370  30582.000000  0    1752793.399   -234892.125   6646897.858
10 0 59370  30702.000000  0    2422661.248   -810292.151   6386746.899
10 0 59370  30822.000000  0    3040201.088  -1382815.543   6014329.687
10 0 59370  30942.000000  0    3594763.076  -1941452.065   5536157.380
10 0 59370  31062.000000  0    4076979.794  -2475250.705   4960601.140
10 0 59370  31182.000000  0    4478929.263  -2973535.101   4297751.601
10 0 59370  31302.000000  0    4794271.463  -3426119.952   3559247.291
10 0 59370  31422.000000  0    5018355.246  -3823522.414   2758072.511
10 0 59370  31542.000000  0    5148291.898  -4157162.976   1908327.420
10 0 59370  31662.000000  0    5182992.236  -4419551.543   1024976.082
10 0 59370  31782.000000  0    5123168.061  -4604454.267    123577.029
10 0 59370  31902.000000  0    4971297.126  -4707036.769   -779998.645
10 0 59370  32022.000000  0    4731552.100  -4723979.065  -1669855.907
10 0 59370  32142.000000  0    4409695.142  -4653559.627  -2530363.891
10 0 59370  32262.000000  0    4012941.535  -4495706.590  -3346436.862
10 0 59370  32382.000000  0    3549796.064  -4252015.626  -4103802.122
10 0 59370  32502.000000  0    3029867.177  -3925733.809  -4789249.675
10 0 59370  32622.000000  0    2463662.716  -3521710.987  -5390858.451
10 0 59370  32742.000000  0    1862373.893  -3046320.940  -5898194.617
10 0 59370  32862.000000  0    1237653.545  -2507355.860  -6302482.054
10 0 59370  32982.000000  0     601390.409  -1913894.851  -6596744.618
10 0 59370  33102.000000  0     -34515.486  -1276147.779  -6775915.887
10 0 59370  33222.000000  0    -658371.127   -605279.559  -6836916.180
10 0 59370  33342.000000  0   -1258899.795     86782.140  -6778699.028
10 0 59370  33462.000000  0   -1825440.316    787553.798  -6602266.600
10 0 59370  33582.000000  0   -2348131.833   1484215.372  -6310654.100
10 0 59370  33702.000000  0   -2818081.896   2163838.969  -5908883.275
10 0 59370  33822.000000  0   -3227517.118   2813624.016  -5403885.869
10 0 59370  33942.000000  0   -3569913.862   3421136.781  -4804395.991
10 0 59370  34062.000000  0   -3840107.026   3974549.193  -4120810.101
10 0 59370  34182.000000  0   -4034372.463   4462871.941  -3365015.679
10 0 59370  34302.000000  0   -4150480.990   4876176.989  -2550192.413
10 0 59370  34422.000000  0   -4187725.059   5205804.998  -1690587.733
10 0 59370  34542.000000  0   -4146916.028   5444552.849   -801269.399
10 0 59370  34662.000000  0   -4030350.246   5586836.449    102142.422
10 0 59370  34782.000000  0   -3841744.106   5628820.919   1003755.770
10 0 59370  34902.000000  0   -3586140.566   5568518.262   1887694.925
10 0 59370  35022.000000  0   -3269788.094   5405847.207   2738390.851
10 0 59370  35142.000000  0   -2899993.796   5142652.317   3540864.144
10 0 59370  35262.000000  0   -2484957.702   4782684.831   4280993.863
10 0 59370  35382.000000  0   -2033591.683   4331546.009   4945769.367
10 0 59370  35502.000000  0   -1555327.884   3796593.683   5523519.806
10 0 59370  35622.000000  0   -1059920.218   3186814.440   6004116.956
10 0 59370  35742.000000  0    -557244.683   2512664.985   6379147.561
10 0 59370  35862.000000  0     -57103.027   1785887.096   6642053.828
10 0 59370  35982.000000  0     430967.492   1019300.058   6788242.818
10 0 59370  36102.000000  0     897875.404    226572.364   6815161.225
10 0 59370  36222.000000  0    1335143.211   -578021.049   6722336.963
10 0 59370  36342.000000  0    1735060.655  -1379855.317   6511387.987
10 0 59370  36462.000000  0    2090820.805  -2164220.707   6185995.950
10 0 59370  36582.000000  0    2396636.941  -2916592.893   5751846.970
10 0 59370  36702.000000  0    2647838.545  -3622904.042   5216537.653
10 0 59370  36822.000000  0    2840943.746  -4269809.100   4589447.605
10 0 59370  36942.000000  0    2973708.245  -4844943.474   3881580.919
10 0 59370  37062.000000  0    3045149.069  -5337166.393   3105375.708
10 0 59370  37182.000000  0    3055542.139  -5736784.503   2274486.466
10 0 59370  37302.000000  0    3006392.880  -6035750.108   1403540.931
10 0 59370  37422.000000  0    2900380.915  -6227827.886    507877.950
10 0 59370  37542.000000  0    2741281.754  -6308727.992   -396728.654
10 0 59370  37662.000000  0    2533864.777  -6276201.875  -1294357.457
10 0 59370  37782.000000  0    2283770.243  -6130094.129  -2169229.339
10 0 59370  37902.000000  0    1997370.156  -5872353.801  -3005991.782
10 0 59370  38022.000000  0    1681614.046  -5507002.770  -3789995.029
10 0 59370  38142.000000  0    1343866.419  -5040061.058  -4507548.954
10 0 59370  38262.000000  0     991741.387  -4479435.546  -5146158.908
10 0 59370  38382.000000  0     632936.144  -3834775.119  -5694736.701
10 0 59370  38502.000000  0     275067.410  -3117294.970  -6143784.164
10 0 59370  38622.000000  0     -74485.580  -2339574.547  -6485546.327
10 0 59370  38742.000000  0    -408728.533  -1515333.764  -6714133.852
10 0 59370  38862.000000  0    -721187.304   -659191.549  -6825614.566
10 0 59370  38982.000000  0   -1006028.810    213590.362  -6818073.884
10 0 59370  39102.000000  0   -1258166.833   1087373.375  -6691642.826
10 0 59370  39222.000000  0   -1473350.690   1946414.958  -6448495.846
10 0 59370  39342.000000  0   -1648235.332   2775144.920  -6092817.497
10 0 59370  39462.000000  0   -1780433.247   3558443.047  -5630739.661
99
